[{"OBJECT_NAME":"OTTER","OBJECT_ID":"2025-009Q","EPOCH":"2026-03-09T17:21:07.902432","MEAN_MOTION":15.27809545,"ECCENTRICITY":0.00035728,"INCLINATION":97.4065,"RA_OF_ASC_NODE":151.3812,"ARG_OF_PERICENTER":310.771,"MEAN_ANOMALY":49.3219,"EPHEMERIS_TYPE":0,"CLASSIFICATION_TYPE":"U","NORAD_CAT_ID":62623,"ELEMENT_SET_NO":999,"REV_AT_EPOCH":6372,"BSTAR":0.00045151206,"MEAN_MOTION_DOT":0.00012198,"MEAN_MOTION_DDOT":0},{"OBJECT_NAME":"STARLINK-34733","OBJECT_ID":"2025-263C","EPOCH":"2026-03-09T04:07:59.232576","MEAN_MOTION":15.27575434,"ECCENTRICITY":0.0001439,"INCLINATION":43.0038,"RA_OF_ASC_NODE":353.2895,"ARG_OF_PERICENTER":252.0512,"MEAN_ANOMALY":108.0183,"EPHEMERIS_TYPE":0,"CLASSIFICATION_TYPE":"U","NORAD_CAT_ID":66487,"ELEMENT_SET_NO":999,"REV_AT_EPOCH":1882,"BSTAR":0.001405514,"MEAN_MOTION_DOT":0.00038612,"MEAN_MOTION_DDOT":0}]
